{"version": 0.6, "generator": "Overpass API 0.7.62.8 e802775f", "osm3s": {"timestamp_osm_base": "2025-11-10T09:45:50Z", "copyright": "The data included in this document is from www.openstreetmap.org. The data is made available under ODbL."}, "elements": [{"type": "node", "id": 2697966451, "lat": 46.9837409, "lon": 8.3628187}, {"type": "node", "id": 2697966452, "lat": 46.983806, "lon": 8.3627406}, {"type": "node", "id": 2697966453, "lat": 46.9838353, "lon": 8.3629877}, {"type": "node", "id": 2697966454, "lat": 46.9839004, "lon": 8.3629095}, {"type": "node", "id": 2697966455, "lat": 46.9840965, "lon": 8.3633598}, {"type": "node", "id": 2697966457, "lat": 46.9841514, "lon": 8.3632943}, {"type": "node", "id": 2697966458, "lat": 46.9841775, "lon": 8.3635054}, {"type": "node", "id": 2697966459, "lat": 46.9842323, "lon": 8.3634399}, {"type": "node", "id": 3039228952, "lat": 46.9852025, "lon": 8.3553559}, {"type": "node", "id": 3039228953, "lat": 46.9851632, "lon": 8.3554418}, {"type": "node", "id": 3039228954, "lat": 46.9851068, "lon": 8.3553863}, {"type": "node", "id": 3039228955, "lat": 46.9851461, "lon": 8.3553004}, {"type": "node", "id": 3039228961, "lat": 46.9862644, "lon": 8.355707}, {"type": "node", "id": 3039228962, "lat": 46.9862304, "lon": 8.3557618}, {"type": "node", "id": 3039228963, "lat": 46.9862506, "lon": 8.3557888}, {"type": "node", "id": 3039228964, "lat": 46.9861677, "lon": 8.3559225}, {"type": "node", "id": 3039228965, "lat": 46.9861504, "lon": 8.3558994}, {"type": "node", "id": 3039228966, "lat": 46.986124, "lon": 8.3559421}, {"type": "node", "id": 3039228967, "lat": 46.9860365, "lon": 8.3558254}, {"type": "node", "id": 3039228968, "lat": 46.9861798, "lon": 8.3555943}, {"type": "node", "id": 3039228971, "lat": 46.9865689, "lon": 8.3556359}, {"type": "node", "id": 3039228972, "lat": 46.9864714, "lon": 8.3557163}, {"type": "node", "id": 3039228973, "lat": 46.9865221, "lon": 8.3558481}, {"type": "node", "id": 3039228974, "lat": 46.9866195, "lon": 8.3557678}, {"type": "node", "id": 3039228975, "lat": 46.9863337, "lon": 8.3560395}, {"type": "node", "id": 3039228976, "lat": 46.9862812, "lon": 8.3560853}, {"type": "node", "id": 3039228977, "lat": 46.9862534, "lon": 8.3560168}, {"type": "node", "id": 3039228978, "lat": 46.986306, "lon": 8.355971}, {"type": "node", "id": 3799862492, "lat": 46.9837983, "lon": 8.3632002}, {"type": "node", "id": 3799862493, "lat": 46.9837581, "lon": 8.3631332}, {"type": "node", "id": 3799862494, "lat": 46.9837765, "lon": 8.3631093}, {"type": "node", "id": 3799862495, "lat": 46.9836911, "lon": 8.3629672}, {"type": "node", "id": 3799862496, "lat": 46.9836331, "lon": 8.3630422}, {"type": "node", "id": 3799862497, "lat": 46.9836738, "lon": 8.36311}, {"type": "node", "id": 3799862498, "lat": 46.9836548, "lon": 8.3631347}, {"type": "node", "id": 3799862499, "lat": 46.9836923, "lon": 8.363197}, {"type": "node", "id": 3799862500, "lat": 46.9836617, "lon": 8.3632365}, {"type": "node", "id": 3799862501, "lat": 46.9837261, "lon": 8.3633436}, {"type": "node", "id": 3799862951, "lat": 46.983958, "lon": 8.3634228}, {"type": "node", "id": 3799862952, "lat": 46.9838921, "lon": 8.3633195}, {"type": "node", "id": 3799862953, "lat": 46.9837759, "lon": 8.363455}, {"type": "node", "id": 3799862954, "lat": 46.9838436, "lon": 8.3635583}, {"type": "node", "id": 3799864126, "lat": 46.9840778, "lon": 8.3635556}, {"type": "node", "id": 3799864127, "lat": 46.984022, "lon": 8.363459}, {"type": "node", "id": 3799864128, "lat": 46.9840092, "lon": 8.3634376}, {"type": "node", "id": 3799864129, "lat": 46.9839195, "lon": 8.3635542}, {"type": "node", "id": 3799864130, "lat": 46.9839936, "lon": 8.3636495}, {"type": "node", "id": 3799865602, "lat": 46.9838445, "lon": 8.3633289}, {"type": "node", "id": 3799865603, "lat": 46.9838738, "lon": 8.3633397}, {"type": "node", "id": 3799865604, "lat": 46.9838253, "lon": 8.363404}, {"type": "node", "id": 3799865605, "lat": 46.9838097, "lon": 8.3633732}, {"type": "node", "id": 3799865606, "lat": 46.9840586, "lon": 8.3631667}, {"type": "node", "id": 3799865607, "lat": 46.9839936, "lon": 8.363054}, {"type": "node", "id": 3799865608, "lat": 46.9839296, "lon": 8.3631425}, {"type": "node", "id": 3799865609, "lat": 46.9839964, "lon": 8.3632471}, {"type": "node", "id": 3799894031, "lat": 46.9853266, "lon": 8.3655471}, {"type": "node", "id": 3799894032, "lat": 46.9851912, "lon": 8.3653969}, {"type": "node", "id": 3799894033, "lat": 46.9850997, "lon": 8.3655686}, {"type": "node", "id": 3799894034, "lat": 46.9852461, "lon": 8.365692}, {"type": "node", "id": 3799894529, "lat": 46.9847503, "lon": 8.3650375}, {"type": "node", "id": 3799894530, "lat": 46.9846258, "lon": 8.3649758}, {"type": "node", "id": 3799894531, "lat": 46.9845673, "lon": 8.3651582}, {"type": "node", "id": 3799894532, "lat": 46.9846899, "lon": 8.3652226}, {"type": "node", "id": 3799894959, "lat": 46.9847356, "lon": 8.3653004}, {"type": "node", "id": 3799894960, "lat": 46.9848783, "lon": 8.3653594}, {"type": "node", "id": 3799894961, "lat": 46.9848875, "lon": 8.3653406}, {"type": "node", "id": 3799894962, "lat": 46.9849442, "lon": 8.3653647}, {"type": "node", "id": 3799894963, "lat": 46.9849863, "lon": 8.3651207}, {"type": "node", "id": 3799894964, "lat": 46.9848893, "lon": 8.3651019}, {"type": "node", "id": 3799894965, "lat": 46.9848509, "lon": 8.365236}, {"type": "node", "id": 3799894966, "lat": 46.9847667, "lon": 8.3651931}, {"type": "node", "id": 3799894973, "lat": 46.9860439, "lon": 8.3669151}, {"type": "node", "id": 3799894974, "lat": 46.9859579, "lon": 8.3667273}, {"type": "node", "id": 3799894975, "lat": 46.9858847, "lon": 8.3668265}, {"type": "node", "id": 3799894976, "lat": 46.9859707, "lon": 8.3669767}, {"type": "node", "id": 3799895663, "lat": 46.9862525, "lon": 8.3672664}, {"type": "node", "id": 3799895664, "lat": 46.9862067, "lon": 8.3671886}, {"type": "node", "id": 3799895665, "lat": 46.9861482, "lon": 8.3672342}, {"type": "node", "id": 3799895666, "lat": 46.9860842, "lon": 8.3671189}, {"type": "node", "id": 3799895667, "lat": 46.9861317, "lon": 8.3670358}, {"type": "node", "id": 3799895668, "lat": 46.9860988, "lon": 8.3669606}, {"type": "node", "id": 3799895669, "lat": 46.9860256, "lon": 8.3670223}, {"type": "node", "id": 3799895670, "lat": 46.9860476, "lon": 8.367084}, {"type": "node", "id": 3799895671, "lat": 46.9859652, "lon": 8.3671779}, {"type": "node", "id": 3799895672, "lat": 46.9860896, "lon": 8.3674139}, {"type": "node", "id": 3799896222, "lat": 46.9861116, "lon": 8.3668587}, {"type": "node", "id": 3799896223, "lat": 46.9860677, "lon": 8.3667836}, {"type": "node", "id": 3799896224, "lat": 46.986011, "lon": 8.3668319}, {"type": "node", "id": 3799896225, "lat": 46.9860567, "lon": 8.3669124}, {"type": "node", "id": 3799896397, "lat": 46.9858675, "lon": 8.3667079}, {"type": "node", "id": 3799896398, "lat": 46.9857779, "lon": 8.3666134}, {"type": "node", "id": 3799896399, "lat": 46.9857271, "lon": 8.3667169}, {"type": "node", "id": 3799896400, "lat": 46.9858168, "lon": 8.3668114}, {"type": "node", "id": 3799896734, "lat": 46.9869661, "lon": 8.3671484}, {"type": "node", "id": 3799896735, "lat": 46.9868654, "lon": 8.3672074}, {"type": "node", "id": 3799896736, "lat": 46.9869039, "lon": 8.3673523}, {"type": "node", "id": 3799896737, "lat": 46.9870137, "lon": 8.3672986}, {"type": "node", "id": 3799897392, "lat": 46.9868545, "lon": 8.3672235}, {"type": "node", "id": 3799897393, "lat": 46.9867886, "lon": 8.3672691}, {"type": "node", "id": 3799897394, "lat": 46.9868362, "lon": 8.3674113}, {"type": "node", "id": 3799897395, "lat": 46.9868947, "lon": 8.367363}, {"type": "node", "id": 3801229941, "lat": 46.985936, "lon": 8.3604673}, {"type": "node", "id": 3801229942, "lat": 46.9859974, "lon": 8.3605198}, {"type": "node", "id": 3801229943, "lat": 46.9860288, "lon": 8.3604407}, {"type": "node", "id": 3801229944, "lat": 46.9859674, "lon": 8.3603883}, {"type": "node", "id": 3801231386, "lat": 46.9922408, "lon": 8.3553256}, {"type": "node", "id": 3801231387, "lat": 46.9922316, "lon": 8.3554153}, {"type": "node", "id": 3801231388, "lat": 46.992064, "lon": 8.3553854}, {"type": "node", "id": 3801231389, "lat": 46.9920688, "lon": 8.355289}, {"type": "node", "id": 3801231390, "lat": 46.9923906, "lon": 8.3553284}, {"type": "node", "id": 3801231391, "lat": 46.9923937, "lon": 8.3554323}, {"type": "node", "id": 3801231392, "lat": 46.9925247, "lon": 8.3554653}, {"type": "node", "id": 3801231393, "lat": 46.9926595, "lon": 8.3553774}, {"type": "node", "id": 3801231394, "lat": 46.9926209, "lon": 8.3552466}, {"type": "node", "id": 3801231395, "lat": 46.992479, "lon": 8.355343}, {"type": "node", "id": 3801231396, "lat": 46.9924693, "lon": 8.3553244}, {"type": "node", "id": 3843248064, "lat": 46.9844117, "lon": 8.3637501}, {"type": "node", "id": 3843248065, "lat": 46.9843538, "lon": 8.363826}, {"type": "node", "id": 3843248066, "lat": 46.9844163, "lon": 8.3639287}, {"type": "node", "id": 3843248067, "lat": 46.9844743, "lon": 8.3638528}, {"type": "node", "id": 3843248068, "lat": 46.9843066, "lon": 8.3635661}, {"type": "node", "id": 3843248069, "lat": 46.9842442, "lon": 8.3636448}, {"type": "node", "id": 3843248070, "lat": 46.984311, "lon": 8.3637588}, {"type": "node", "id": 3843248071, "lat": 46.9843735, "lon": 8.3636801}, {"type": "node", "id": 10000355085, "lat": 46.9857872, "lon": 8.3662642}, {"type": "node", "id": 10000355086, "lat": 46.9857123, "lon": 8.3664141}, {"type": "node", "id": 10000355087, "lat": 46.9855947, "lon": 8.3662878}, {"type": "node", "id": 10000355088, "lat": 46.9856697, "lon": 8.3661379}, {"type": "node", "id": 10000355110, "lat": 46.9837486, "lon": 8.3633145}, {"type": "node", "id": 10000355111, "lat": 46.9837317, "lon": 8.3632863}, {"type": "node", "id": 10000401951, "lat": 46.986371, "lon": 8.3560328}, {"type": "node", "id": 10000401952, "lat": 46.9864613, "lon": 8.3559488}, {"type": "node", "id": 10000401953, "lat": 46.9864178, "lon": 8.3558484}, {"type": "node", "id": 10000401954, "lat": 46.9863275, "lon": 8.3559324}, {"type": "node", "id": 10000401955, "lat": 46.9860709, "lon": 8.3556627}, {"type": "node", "id": 10000401956, "lat": 46.9861163, "lon": 8.3555889}, {"type": "node", "id": 10000401957, "lat": 46.9860857, "lon": 8.3555485}, {"type": "node", "id": 10000401958, "lat": 46.9860403, "lon": 8.3556223}, {"type": "node", "id": 10039861013, "lat": 46.9918588, "lon": 8.3552998}, {"type": "node", "id": 10039861014, "lat": 46.9918481, "lon": 8.3553322}, {"type": "node", "id": 10039861015, "lat": 46.9917956, "lon": 8.3552949}, {"type": "node", "id": 10039861016, "lat": 46.9918063, "lon": 8.3552625}, {"type": "node", "id": 10039871117, "lat": 46.9925076, "lon": 8.3554052}, {"type": "node", "id": 10039871118, "lat": 46.9924838, "lon": 8.3554176}, {"type": "node", "id": 10039871119, "lat": 46.9924837, "lon": 8.3554273}, {"type": "node", "id": 11137438558, "lat": 46.9858583, "lon": 8.3667267}, {"type": "node", "id": 11137438559, "lat": 46.9858301, "lon": 8.3667841}, {"type": "node", "id": 11137438560, "lat": 46.9858355, "lon": 8.36679}, {"type": "node", "id": 11137438561, "lat": 46.9858637, "lon": 8.3667323}, {"type": "node", "id": 12738958504, "lat": 46.9903041, "lon": 8.3583815}, {"type": "node", "id": 12738958505, "lat": 46.9903345, "lon": 8.358449}, {"type": "node", "id": 12738958506, "lat": 46.990316, "lon": 8.3584668}, {"type": "node", "id": 12738958507, "lat": 46.9902857, "lon": 8.3583993}, {"type": "way", "id": 264131432, "nodes": [2697966451, 2697966452, 2697966454, 2697966453, 2697966451], "tags": {"addr:city": "Obb\u00fcrgen", "addr:housenumber": "13", "addr:postcode": "6363", "addr:street": "Widenrain", "building": "yes"}}, {"type": "way", "id": 264131461, "nodes": [2697966455, 2697966457, 2697966459, 2697966458, 2697966455], "tags": {"addr:city": "Obb\u00fcrgen", "addr:housenumber": "17", "addr:postcode": "6363", "addr:street": "Widenrain", "building": "yes"}}, {"type": "way", "id": 299842272, "nodes": [3039228952, 3039228953, 3039228954, 3039228955, 3039228952], "tags": {"addr:city": "Obb\u00fcrgen", "addr:housenumber": "1a", "addr:place": "Ober Schilt", "addr:postcode": "6363", "building": "yes"}}, {"type": "way", "id": 299842273, "nodes": [3039228961, 3039228962, 3039228963, 3039228964, 3039228965, 3039228966, 3039228967, 3039228968, 3039228961], "tags": {"building": "yes"}}, {"type": "way", "id": 299842274, "nodes": [3039228971, 3039228972, 3039228973, 3039228974, 3039228971], "tags": {"addr:city": "Obb\u00fcrgen", "addr:housenumber": "1", "addr:place": "Ober Schilt", "addr:postcode": "6363", "building": "yes"}}, {"type": "way", "id": 299842275, "nodes": [3039228975, 3039228976, 3039228977, 3039228978, 3039228975], "tags": {"building": "yes"}}, {"type": "way", "id": 376578830, "nodes": [3799862492, 3799862493, 3799862494, 3799862495, 3799862496, 3799862497, 3799862498, 3799862499, 3799862500, 3799862501, 10000355110, 10000355111, 3799862492], "tags": {"addr:city": "Obb\u00fcrgen", "addr:housenumber": "4", "addr:postcode": "6363", "addr:street": "Widenrain", "building": "yes"}}, {"type": "way", "id": 376578935, "nodes": [3799862951, 3799862952, 3799865603, 3799865602, 3799865605, 3799865604, 3799862953, 3799862954, 3799862951], "tags": {"addr:city": "Obb\u00fcrgen", "addr:housenumber": "2", "addr:postcode": "6363", "addr:street": "Widenrain", "building": "yes"}}, {"type": "way", "id": 376579151, "nodes": [3799864126, 3799864127, 3799864128, 3799864129, 3799864130, 3799864126], "tags": {"addr:city": "Obb\u00fcrgen", "addr:housenumber": "24", "addr:postcode": "6363", "addr:street": "Widenrain", "building": "yes"}}, {"type": "way", "id": 376579433, "nodes": [3799865606, 3799865607, 3799865608, 3799865609, 3799865606], "tags": {"addr:city": "Obb\u00fcrgen", "addr:housenumber": "15", "addr:postcode": "6363", "addr:street": "Widenrain", "building": "yes"}}, {"type": "way", "id": 376583010, "nodes": [3799894031, 3799894032, 3799894033, 3799894034, 3799894031], "tags": {"addr:city": "Obb\u00fcrgen", "addr:housenumber": "1", "addr:place": "Niederwil", "addr:postcode": "6363", "building": "yes"}}, {"type": "way", "id": 376583029, "nodes": [3799894529, 3799894530, 3799894531, 3799894532, 3799894529], "tags": {"building": "yes"}}, {"type": "way", "id": 376583049, "nodes": [3799894959, 3799894960, 3799894961, 3799894962, 3799894963, 3799894964, 3799894965, 3799894966, 3799894959], "tags": {"building": "yes"}}, {"type": "way", "id": 376583135, "nodes": [3799895663, 3799895664, 3799895665, 3799895666, 3799895667, 3799895668, 3799895669, 3799895670, 3799895671, 3799895672, 3799895663], "tags": {"building": "yes"}}, {"type": "way", "id": 376583207, "nodes": [3799896222, 3799896223, 3799896224, 3799896225, 3799896222], "tags": {"building": "yes"}}, {"type": "way", "id": 376583225, "nodes": [3799896397, 3799896398, 3799896399, 3799896400, 11137438559, 11137438560, 11137438561, 11137438558, 3799896397], "tags": {"addr:city": "Obb\u00fcrgen", "addr:full": "Salacher 1, 6363 Obb\u00fcrgen", "addr:housenumber": "1", "addr:place": "Salacher", "addr:postcode": "6363", "building": "residential", "wikidata": "Q121770623"}}, {"type": "way", "id": 376583280, "nodes": [3799894973, 3799894974, 3799894975, 3799894976, 3799894973], "tags": {"building": "yes"}}, {"type": "way", "id": 376583382, "nodes": [3799896734, 3799896735, 3799896736, 3799896737, 3799896734], "tags": {"building": "yes"}}, {"type": "way", "id": 376583404, "nodes": [3799897392, 3799897393, 3799897394, 3799897395, 3799897392], "tags": {"building": "yes"}}, {"type": "way", "id": 376731253, "nodes": [3801229941, 3801229942, 3801229943, 3801229944, 3801229941], "tags": {"building": "yes"}}, {"type": "way", "id": 376731262, "nodes": [3801231386, 3801231387, 3801231388, 3801231389, 3801231386], "tags": {"building": "roof"}}, {"type": "way", "id": 376731263, "nodes": [3801231390, 3801231391, 10039871119, 10039871118, 10039871117, 3801231392, 3801231393, 3801231394, 3801231395, 3801231396, 3801231390], "tags": {"addr:city": "Kehrsiten", "addr:housenumber": "1", "addr:place": "H\u00fcttenort", "addr:postcode": "6365", "addr:street": "H\u00fcttenort", "building": "detached", "building:levels": "2", "name": "Fischerhuis", "roof:levels": "1", "roof:shape": "gabled"}}, {"type": "way", "id": 381064559, "nodes": [3843248064, 3843248065, 3843248066, 3843248067, 3843248064], "tags": {"addr:city": "Obb\u00fcrgen", "addr:housenumber": "21", "addr:postcode": "6363", "addr:street": "Widenrain", "building": "yes"}}, {"type": "way", "id": 381064560, "nodes": [3843248068, 3843248069, 3843248070, 3843248071, 3843248068], "tags": {"addr:city": "Obb\u00fcrgen", "addr:housenumber": "19", "addr:postcode": "6363", "addr:street": "Widenrain", "building": "yes"}}, {"type": "way", "id": 1091929299, "nodes": [10000355085, 10000355086, 10000355087, 10000355088, 10000355085], "tags": {"addr:city": "Obb\u00fcrgen", "addr:housenumber": "3", "addr:place": "Salacher", "addr:postcode": "6363", "building": "yes"}}, {"type": "way", "id": 1091929305, "nodes": [10000401951, 10000401952, 10000401953, 10000401954, 10000401951], "tags": {"building": "yes"}}, {"type": "way", "id": 1091929306, "nodes": [10000401955, 10000401956, 10000401957, 10000401958, 10000401955], "tags": {"building": "yes"}}, {"type": "way", "id": 1096343830, "nodes": [10039861013, 10039861014, 10039861015, 10039861016, 10039861013], "tags": {"building": "shed"}}, {"type": "way", "id": 1375849242, "nodes": [12738958504, 12738958505, 12738958506, 12738958507, 12738958504], "tags": {"building": "yes"}}]}