{"version": 0.6, "generator": "Overpass API 0.7.62.8 e802775f", "osm3s": {"timestamp_osm_base": "2025-11-13T08:29:05Z", "copyright": "The data included in this document is from www.openstreetmap.org. The data is made available under ODbL."}, "elements": [{"type": "node", "id": 459658100, "lat": 47.0646661, "lon": 6.8680404}, {"type": "node", "id": 459658101, "lat": 47.06444, "lon": 6.8679494}, {"type": "node", "id": 459658102, "lat": 47.064393, "lon": 6.8681346}, {"type": "node", "id": 459658103, "lat": 47.0646221, "lon": 6.8682382}, {"type": "node", "id": 599598266, "lat": 47.0693922, "lon": 6.8746262}, {"type": "node", "id": 599598298, "lat": 47.0692908, "lon": 6.8747035}, {"type": "node", "id": 599598300, "lat": 47.0693542, "lon": 6.8748826}, {"type": "node", "id": 599598301, "lat": 47.0694556, "lon": 6.8748053}, {"type": "node", "id": 649577358, "lat": 47.0680596, "lon": 6.875486}, {"type": "node", "id": 649577362, "lat": 47.0681388, "lon": 6.8757157}, {"type": "node", "id": 649577385, "lat": 47.0682984, "lon": 6.8755971}, {"type": "node", "id": 649577388, "lat": 47.0682786, "lon": 6.8755395}, {"type": "node", "id": 649577393, "lat": 47.0682426, "lon": 6.8755662}, {"type": "node", "id": 649577395, "lat": 47.0681833, "lon": 6.8753942}, {"type": "node", "id": 649577397, "lat": 47.0682242, "lon": 6.8759287}, {"type": "node", "id": 649577400, "lat": 47.068356, "lon": 6.8758881}, {"type": "node", "id": 649577402, "lat": 47.0683295, "lon": 6.875703}, {"type": "node", "id": 649577403, "lat": 47.0681978, "lon": 6.8757436}, {"type": "node", "id": 649577405, "lat": 47.0684327, "lon": 6.8757179}, {"type": "node", "id": 649577407, "lat": 47.0684819, "lon": 6.8758413}, {"type": "node", "id": 649577409, "lat": 47.0684845, "lon": 6.8756733}, {"type": "node", "id": 649577411, "lat": 47.0685338, "lon": 6.8757967}, {"type": "node", "id": 649577419, "lat": 47.0693177, "lon": 6.8749649}, {"type": "node", "id": 649577421, "lat": 47.0692635, "lon": 6.8750092}, {"type": "node", "id": 649577427, "lat": 47.0692952, "lon": 6.8750926}, {"type": "node", "id": 649577429, "lat": 47.0693494, "lon": 6.8750483}, {"type": "node", "id": 649577432, "lat": 47.0691384, "lon": 6.8750793}, {"type": "node", "id": 649577433, "lat": 47.0690594, "lon": 6.8751417}, {"type": "node", "id": 649577435, "lat": 47.0691273, "lon": 6.8753271}, {"type": "node", "id": 649577436, "lat": 47.0692063, "lon": 6.8752647}, {"type": "node", "id": 1175548603, "lat": 47.0665629, "lon": 6.874415}, {"type": "node", "id": 1175548608, "lat": 47.067221, "lon": 6.8713937}, {"type": "node", "id": 1175548748, "lat": 47.067163, "lon": 6.8713479}, {"type": "node", "id": 1175548903, "lat": 47.0667182, "lon": 6.8744551}, {"type": "node", "id": 1175549060, "lat": 47.0671801, "lon": 6.8714158}, {"type": "node", "id": 1175549155, "lat": 47.067204, "lon": 6.8713257}, {"type": "node", "id": 1175549251, "lat": 47.0666659, "lon": 6.8745447}, {"type": "node", "id": 1175549395, "lat": 47.0666151, "lon": 6.8743255}, {"type": "node", "id": 1377068048, "lat": 47.0605676, "lon": 6.874369}, {"type": "node", "id": 1377068050, "lat": 47.0606146, "lon": 6.8744382}, {"type": "node", "id": 1377068052, "lat": 47.0606256, "lon": 6.8742843}, {"type": "node", "id": 1377068058, "lat": 47.0606725, "lon": 6.8743535}, {"type": "node", "id": 1377068090, "lat": 47.0628909, "lon": 6.8734562}, {"type": "node", "id": 1377068092, "lat": 47.0629145, "lon": 6.8733718}, {"type": "node", "id": 1377068098, "lat": 47.0629845, "lon": 6.8735124}, {"type": "node", "id": 1377068105, "lat": 47.063008, "lon": 6.873428}, {"type": "node", "id": 1377068110, "lat": 47.0630981, "lon": 6.8732217}, {"type": "node", "id": 1377068114, "lat": 47.0631393, "lon": 6.8730323}, {"type": "node", "id": 1377068115, "lat": 47.0631774, "lon": 6.8732588}, {"type": "node", "id": 1377068120, "lat": 47.0632186, "lon": 6.8730694}, {"type": "node", "id": 10594114215, "lat": 47.069057, "lon": 6.8746915}, {"type": "node", "id": 10594114216, "lat": 47.0690904, "lon": 6.8747872}, {"type": "node", "id": 10594114217, "lat": 47.0690856, "lon": 6.8747907}, {"type": "node", "id": 10594114218, "lat": 47.0690948, "lon": 6.8748199}, {"type": "node", "id": 10594114219, "lat": 47.0690566, "lon": 6.8748473}, {"type": "node", "id": 10594114220, "lat": 47.0690494, "lon": 6.8748246}, {"type": "node", "id": 10594114221, "lat": 47.0690371, "lon": 6.8748316}, {"type": "node", "id": 10594114222, "lat": 47.0690009, "lon": 6.8747323}, {"type": "node", "id": 10594114223, "lat": 47.0693161, "lon": 6.8751218}, {"type": "node", "id": 10594114224, "lat": 47.0693397, "lon": 6.8751717}, {"type": "node", "id": 10594114225, "lat": 47.0692944, "lon": 6.8752196}, {"type": "node", "id": 10594114226, "lat": 47.0692696, "lon": 6.8751691}, {"type": "node", "id": 11828789662, "lat": 47.0644694, "lon": 6.868227}, {"type": "node", "id": 11828789663, "lat": 47.0644544, "lon": 6.8683018}, {"type": "node", "id": 11828789664, "lat": 47.0643987, "lon": 6.8682778}, {"type": "node", "id": 11828789665, "lat": 47.0644136, "lon": 6.868203}, {"type": "way", "id": 38763174, "nodes": [459658100, 459658101, 459658102, 459658103, 459658100], "tags": {"addr:city": "La Vue-des-Alpes", "addr:housenumber": "41", "addr:postcode": "2052", "addr:street": "La Grognerie", "building": "yes", "source": "Orthophotos2006sitn50cm"}}, {"type": "way", "id": 46991807, "nodes": [599598266, 599598298, 599598300, 599598301, 599598266], "tags": {"addr:city": "La Vue-des-Alpes", "addr:housenumber": "14", "addr:postcode": "2052", "addr:street": "Route des Loges", "building": "yes", "source": "Orthophotos2006sitn50cm"}}, {"type": "way", "id": 50940497, "nodes": [649577419, 649577421, 649577427, 649577429, 649577419], "tags": {"building": "yes", "source": "Orthophotos2006sitn50cm"}}, {"type": "way", "id": 50940498, "nodes": [649577432, 649577433, 649577435, 649577436, 649577432], "tags": {"addr:city": "La Vue-des-Alpes", "addr:housenumber": "12", "addr:postcode": "2052", "addr:street": "Route des Loges", "building": "yes", "source": "Orthophotos2006sitn50cm"}}, {"type": "way", "id": 50940499, "nodes": [649577395, 649577358, 649577362, 649577385, 649577388, 649577393, 649577395], "tags": {"addr:city": "La Vue-des-Alpes", "addr:housenumber": "4", "addr:postcode": "2052", "addr:street": "Route des Loges", "building": "yes", "source": "Orthophotos2006sitn50cm"}}, {"type": "way", "id": 50940500, "nodes": [649577397, 649577400, 649577402, 649577403, 649577397], "tags": {"addr:city": "La Vue-des-Alpes", "addr:housenumber": "6", "addr:postcode": "2052", "addr:street": "Route des Loges", "building": "yes", "source": "Orthophotos2006sitn50cm"}}, {"type": "way", "id": 50940501, "nodes": [649577405, 649577407, 649577411, 649577409, 649577405], "tags": {"addr:city": "La Vue-des-Alpes", "addr:housenumber": "8", "addr:postcode": "2052", "addr:street": "Route des Loges", "building": "yes", "source": "Orthophotos2006sitn50cm"}}, {"type": "way", "id": 101824148, "nodes": [1175548903, 1175549251, 1175548603, 1175549395, 1175548903], "tags": {"building": "yes", "source": "Orthophotos2006sitn50cm"}}, {"type": "way", "id": 101824157, "nodes": [1175549155, 1175548608, 1175549060, 1175548748, 1175549155], "tags": {"building": "yes", "source": "Orthophotos2006sitn50cm"}}, {"type": "way", "id": 123502432, "nodes": [1377068092, 1377068105, 1377068098, 1377068090, 1377068092], "tags": {"addr:city": "Fontainemelon", "addr:country": "CH", "addr:postcode": "2052", "building": "yes", "source": "Orthophotos2006sitn50cm"}}, {"type": "way", "id": 123502444, "nodes": [1377068058, 1377068052, 1377068048, 1377068050, 1377068058], "tags": {"addr:city": "Fontainemelon", "addr:country": "CH", "addr:postcode": "2052", "building": "yes", "source": "Orthophotos2006sitn50cm"}}, {"type": "way", "id": 123502453, "nodes": [1377068120, 1377068114, 1377068110, 1377068115, 1377068120], "tags": {"addr:city": "Fontainemelon", "addr:country": "CH", "addr:postcode": "2052", "building": "yes", "source": "Orthophotos2006sitn50cm"}}, {"type": "way", "id": 1136457875, "nodes": [10594114215, 10594114216, 10594114217, 10594114218, 10594114219, 10594114220, 10594114221, 10594114222, 10594114215], "tags": {"building": "yes"}}, {"type": "way", "id": 1136457876, "nodes": [10594114223, 10594114224, 10594114225, 10594114226, 10594114223], "tags": {"building": "yes"}}, {"type": "way", "id": 1273873007, "nodes": [11828789662, 11828789663, 11828789664, 11828789665, 11828789662], "tags": {"building": "yes"}}]}