{"version": 0.6, "generator": "Overpass API 0.7.62.8 e802775f", "osm3s": {"timestamp_osm_base": "2025-11-07T09:00:54Z", "copyright": "The data included in this document is from www.openstreetmap.org. The data is made available under ODbL."}, "elements": [{"type": "node", "id": 4731042133, "lat": 46.2055904, "lon": 8.974372}, {"type": "node", "id": 4756560887, "lat": 46.2055213, "lon": 8.974375}, {"type": "node", "id": 4756560888, "lat": 46.2055878, "lon": 8.9742457}, {"type": "node", "id": 4756560907, "lat": 46.2057308, "lon": 8.9745774}, {"type": "node", "id": 4756560917, "lat": 46.2056971, "lon": 8.9746331}, {"type": "node", "id": 4756560918, "lat": 46.2056613, "lon": 8.9745879}, {"type": "node", "id": 4756560919, "lat": 46.205695, "lon": 8.9745323}, {"type": "node", "id": 4756560920, "lat": 46.2055186, "lon": 8.9742487}, {"type": "node", "id": 4756569938, "lat": 46.2053958, "lon": 8.9767028}, {"type": "node", "id": 4756569939, "lat": 46.2053483, "lon": 8.9767716}, {"type": "node", "id": 4756569940, "lat": 46.2053878, "lon": 8.9768287}, {"type": "node", "id": 4756569941, "lat": 46.2054354, "lon": 8.9767598}, {"type": "node", "id": 4756569942, "lat": 46.2056561, "lon": 8.9763865}, {"type": "node", "id": 4756569943, "lat": 46.2056388, "lon": 8.9764691}, {"type": "node", "id": 4756569944, "lat": 46.2055625, "lon": 8.9764358}, {"type": "node", "id": 4756569945, "lat": 46.2055798, "lon": 8.9763532}, {"type": "node", "id": 4756569946, "lat": 46.2058088, "lon": 8.9761522}, {"type": "node", "id": 4756569947, "lat": 46.2058055, "lon": 8.9762564}, {"type": "node", "id": 4756569948, "lat": 46.205749, "lon": 8.9762526}, {"type": "node", "id": 4756569949, "lat": 46.2057523, "lon": 8.9761485}, {"type": "node", "id": 12843459546, "lat": 46.2056179, "lon": 8.9763699}, {"type": "node", "id": 12843459547, "lat": 46.2056007, "lon": 8.9764524}, {"type": "way", "id": 482876683, "nodes": [4731042133, 4756560888, 4756560920, 4756560887, 4731042133], "tags": {"addr:city": "Monte Carasso", "addr:country": "CH", "addr:housenumber": "1", "addr:place": "Zona Monti 3", "addr:postcode": "6513", "building": "hut", "tourism": "alpine_hut"}}, {"type": "way", "id": 482876687, "nodes": [4756560907, 4756560917, 4756560918, 4756560919, 4756560907], "tags": {"building": "hut"}}, {"type": "way", "id": 482877981, "nodes": [4756569938, 4756569939, 4756569940, 4756569941, 4756569938], "tags": {"addr:city": "Monte Carasso", "addr:housenumber": "24", "addr:place": "Zona Monti 3", "addr:postcode": "6513", "building": "yes", "roof:colour": "grey", "roof:orientation": "across", "roof:shape": "gabled", "source": "Swiss Image 2025 and GWR from https://qa.poole.ch/addresses/ch/missing/5002.geojson"}}, {"type": "way", "id": 482877982, "nodes": [12843459546, 4756569942, 4756569943, 12843459547], "tags": {"source": "Swiss Image 2025 and GWR from https://qa.poole.ch/addresses/ch/missing/5002.geojson"}}, {"type": "way", "id": 482877983, "nodes": [4756569946, 4756569947, 4756569948, 4756569949, 4756569946], "tags": {"addr:city": "Monte Carasso", "addr:housenumber": "26", "addr:place": "Zona Monti 3", "addr:postcode": "6513", "building": "yes", "roof:colour": "grey", "roof:orientation": "along", "roof:shape": "gabled", "source": "Swiss Image 2025 and GWR from https://qa.poole.ch/addresses/ch/missing/5002.geojson"}}, {"type": "way", "id": 1387428984, "nodes": [12843459547, 4756569944, 4756569945, 12843459546], "tags": {"source": "Swiss Image 2025 and GWR from https://qa.poole.ch/addresses/ch/missing/5002.geojson"}}, {"type": "relation", "id": 19140552, "members": [{"type": "way", "ref": 1387428984, "role": "outer"}, {"type": "way", "ref": 482877982, "role": "outer"}], "tags": {"addr:city": "Monte Carasso", "addr:housenumber": "25", "addr:place": "Zona Monti 3", "addr:postcode": "6513", "building": "yes", "type": "multipolygon"}}]}