{"version": 0.6, "generator": "Overpass API 0.7.62.8 e802775f", "osm3s": {"timestamp_osm_base": "2025-11-07T09:21:26Z", "copyright": "The data included in this document is from www.openstreetmap.org. The data is made available under ODbL."}, "elements": [{"type": "node", "id": 3029122664, "lat": 46.9944421, "lon": 8.3738675}, {"type": "node", "id": 3029122665, "lat": 46.9945387, "lon": 8.3741184}, {"type": "node", "id": 3029122666, "lat": 46.9947725, "lon": 8.3747847}, {"type": "node", "id": 3029122667, "lat": 46.9948533, "lon": 8.3750656}, {"type": "node", "id": 3029122668, "lat": 46.995008, "lon": 8.3749699}, {"type": "node", "id": 3029122669, "lat": 46.9949271, "lon": 8.374689}, {"type": "node", "id": 3029122676, "lat": 46.9946845, "lon": 8.3739978}, {"type": "node", "id": 3029122677, "lat": 46.9945879, "lon": 8.3737469}, {"type": "node", "id": 3029122682, "lat": 46.9951037, "lon": 8.3735853}, {"type": "node", "id": 3029122683, "lat": 46.9949655, "lon": 8.3737241}, {"type": "node", "id": 3029122684, "lat": 46.9952331, "lon": 8.3742967}, {"type": "node", "id": 3029122685, "lat": 46.9953713, "lon": 8.3741579}, {"type": "node", "id": 3029142218, "lat": 46.9954875, "lon": 8.3748009}, {"type": "node", "id": 3029142219, "lat": 46.9955483, "lon": 8.3749572}, {"type": "node", "id": 3029142220, "lat": 46.9955212, "lon": 8.3749799}, {"type": "node", "id": 3029142221, "lat": 46.9956974, "lon": 8.3754347}, {"type": "node", "id": 3029142222, "lat": 46.9957257, "lon": 8.375411}, {"type": "node", "id": 3029142223, "lat": 46.9957848, "lon": 8.3755631}, {"type": "node", "id": 3029142224, "lat": 46.9956287, "lon": 8.3756934}, {"type": "node", "id": 3029142225, "lat": 46.995569, "lon": 8.3755396}, {"type": "node", "id": 3029142226, "lat": 46.9955948, "lon": 8.3755181}, {"type": "node", "id": 3029142227, "lat": 46.9955365, "lon": 8.375368}, {"type": "node", "id": 3029142228, "lat": 46.9955115, "lon": 8.3753889}, {"type": "node", "id": 3029142229, "lat": 46.9954503, "lon": 8.3752313}, {"type": "node", "id": 3029142230, "lat": 46.9954729, "lon": 8.3752125}, {"type": "node", "id": 3029142231, "lat": 46.9954172, "lon": 8.3750693}, {"type": "node", "id": 3029142232, "lat": 46.9953919, "lon": 8.3750904}, {"type": "node", "id": 3029142333, "lat": 46.9953304, "lon": 8.3749322}, {"type": "node", "id": 3799897627, "lat": 46.9886967, "lon": 8.3703007}, {"type": "node", "id": 3799897628, "lat": 46.9885646, "lon": 8.3701382}, {"type": "node", "id": 3799897629, "lat": 46.9884751, "lon": 8.3702945}, {"type": "node", "id": 3799897630, "lat": 46.9886073, "lon": 8.370457}, {"type": "node", "id": 3799898481, "lat": 46.9882483, "lon": 8.3698795}, {"type": "node", "id": 3799898482, "lat": 46.9881633, "lon": 8.3697967}, {"type": "node", "id": 3799898483, "lat": 46.9880944, "lon": 8.3699488}, {"type": "node", "id": 3799898484, "lat": 46.9881791, "lon": 8.3700313}, {"type": "node", "id": 3799898707, "lat": 46.9893698, "lon": 8.3696395}, {"type": "node", "id": 3799898708, "lat": 46.9892576, "lon": 8.369513}, {"type": "node", "id": 3799898709, "lat": 46.9892052, "lon": 8.369613}, {"type": "node", "id": 3799898710, "lat": 46.9893174, "lon": 8.3697395}, {"type": "node", "id": 3801231419, "lat": 46.9952398, "lon": 8.3617788}, {"type": "node", "id": 3801231420, "lat": 46.9952693, "lon": 8.361832}, {"type": "node", "id": 3801231421, "lat": 46.9952951, "lon": 8.3618011}, {"type": "node", "id": 3801231422, "lat": 46.9953677, "lon": 8.3619317}, {"type": "node", "id": 3801231423, "lat": 46.9953051, "lon": 8.3620064}, {"type": "node", "id": 3801231424, "lat": 46.9952031, "lon": 8.3618226}, {"type": "node", "id": 3801231435, "lat": 46.9957999, "lon": 8.3619063}, {"type": "node", "id": 3801231436, "lat": 46.9957549, "lon": 8.3619686}, {"type": "node", "id": 3801231437, "lat": 46.9958093, "lon": 8.362053}, {"type": "node", "id": 3801231438, "lat": 46.995791, "lon": 8.3620782}, {"type": "node", "id": 3801231439, "lat": 46.9956976, "lon": 8.3619037}, {"type": "node", "id": 3801231440, "lat": 46.9957508, "lon": 8.3618301}, {"type": "node", "id": 3801231441, "lat": 46.9959433, "lon": 8.3621892}, {"type": "node", "id": 3801231442, "lat": 46.996014, "lon": 8.3622985}, {"type": "node", "id": 3801231443, "lat": 46.9959566, "lon": 8.3623783}, {"type": "node", "id": 3801231444, "lat": 46.9958859, "lon": 8.362269}, {"type": "node", "id": 3801231445, "lat": 46.9961533, "lon": 8.3626463}, {"type": "node", "id": 3801231446, "lat": 46.9962076, "lon": 8.362729}, {"type": "node", "id": 3801231447, "lat": 46.9962647, "lon": 8.3626484}, {"type": "node", "id": 3801231448, "lat": 46.9962104, "lon": 8.3625656}, {"type": "node", "id": 3801231660, "lat": 46.9894715, "lon": 8.3719357}, {"type": "node", "id": 3801231661, "lat": 46.9897221, "lon": 8.3722851}, {"type": "node", "id": 3801231662, "lat": 46.9896028, "lon": 8.372469}, {"type": "node", "id": 3801231663, "lat": 46.9893522, "lon": 8.3721197}, {"type": "node", "id": 3801231664, "lat": 46.9903745, "lon": 8.3708661}, {"type": "node", "id": 3801231665, "lat": 46.9904272, "lon": 8.3709633}, {"type": "node", "id": 3801231666, "lat": 46.9903422, "lon": 8.3710623}, {"type": "node", "id": 3801231667, "lat": 46.9902895, "lon": 8.3709651}, {"type": "node", "id": 3801231668, "lat": 46.9904414, "lon": 8.3710983}, {"type": "node", "id": 3801231669, "lat": 46.9903964, "lon": 8.3711484}, {"type": "node", "id": 3801231670, "lat": 46.9903524, "lon": 8.3710635}, {"type": "node", "id": 3801231671, "lat": 46.9903974, "lon": 8.3710134}, {"type": "node", "id": 3801231672, "lat": 46.9903683, "lon": 8.3711447}, {"type": "node", "id": 3801231673, "lat": 46.9903358, "lon": 8.3712076}, {"type": "node", "id": 3801231674, "lat": 46.9903763, "lon": 8.3712599}, {"type": "node", "id": 3801231675, "lat": 46.990347, "lon": 8.3713136}, {"type": "node", "id": 3801231676, "lat": 46.9902699, "lon": 8.3712344}, {"type": "node", "id": 3801231677, "lat": 46.9903408, "lon": 8.3710992}, {"type": "node", "id": 3801231682, "lat": 46.9902664, "lon": 8.3722993}, {"type": "node", "id": 3801231683, "lat": 46.9903594, "lon": 8.3723884}, {"type": "node", "id": 3801231684, "lat": 46.9903343, "lon": 8.3724447}, {"type": "node", "id": 3801231685, "lat": 46.9903497, "lon": 8.3724595}, {"type": "node", "id": 3801231686, "lat": 46.9903011, "lon": 8.3725686}, {"type": "node", "id": 3801231687, "lat": 46.9901927, "lon": 8.3724648}, {"type": "node", "id": 3801231688, "lat": 46.9903748, "lon": 8.3723598}, {"type": "node", "id": 3801231689, "lat": 46.9904537, "lon": 8.372429}, {"type": "node", "id": 3801231690, "lat": 46.9904934, "lon": 8.3723314}, {"type": "node", "id": 3801231691, "lat": 46.9904145, "lon": 8.3722623}, {"type": "node", "id": 3801231692, "lat": 46.9912721, "lon": 8.3724986}, {"type": "node", "id": 3801231693, "lat": 46.9912941, "lon": 8.3724478}, {"type": "node", "id": 3801231694, "lat": 46.991335, "lon": 8.3724857}, {"type": "node", "id": 3801231699, "lat": 46.9914282, "lon": 8.3722693}, {"type": "node", "id": 3801231700, "lat": 46.9912104, "lon": 8.3720676}, {"type": "node", "id": 3801231701, "lat": 46.9911814, "lon": 8.3721351}, {"type": "node", "id": 3801231702, "lat": 46.9911393, "lon": 8.3720961}, {"type": "node", "id": 3801231703, "lat": 46.9910531, "lon": 8.3722958}, {"type": "node", "id": 3801231704, "lat": 46.991258, "lon": 8.3725508}, {"type": "node", "id": 3801231705, "lat": 46.9912127, "lon": 8.3726586}, {"type": "node", "id": 3801231706, "lat": 46.9910467, "lon": 8.3725087}, {"type": "node", "id": 3801231707, "lat": 46.9910932, "lon": 8.3724021}, {"type": "node", "id": 3801231708, "lat": 46.9925398, "lon": 8.3723785}, {"type": "node", "id": 3801231709, "lat": 46.9926327, "lon": 8.3725549}, {"type": "node", "id": 3801231710, "lat": 46.9926889, "lon": 8.3724913}, {"type": "node", "id": 3801231711, "lat": 46.992596, "lon": 8.3723149}, {"type": "node", "id": 3843248060, "lat": 46.9894856, "lon": 8.3725384}, {"type": "node", "id": 3843248061, "lat": 46.9894078, "lon": 8.3724392}, {"type": "node", "id": 3843248062, "lat": 46.9893632, "lon": 8.3725143}, {"type": "node", "id": 3843248063, "lat": 46.989441, "lon": 8.3726136}, {"type": "node", "id": 10000157249, "lat": 46.9882153, "lon": 8.3699525}, {"type": "node", "id": 10000157250, "lat": 46.9882264, "lon": 8.3699633}, {"type": "node", "id": 10000157251, "lat": 46.9881982, "lon": 8.3700255}, {"type": "node", "id": 10000157252, "lat": 46.9881868, "lon": 8.3700145}, {"type": "node", "id": 10000157257, "lat": 46.9911145, "lon": 8.3723533}, {"type": "node", "id": 10000157258, "lat": 46.9910209, "lon": 8.3725678}, {"type": "node", "id": 10000157259, "lat": 46.9909276, "lon": 8.3724803}, {"type": "node", "id": 10000157260, "lat": 46.9910333, "lon": 8.3722382}, {"type": "node", "id": 10000157261, "lat": 46.9910652, "lon": 8.3722681}, {"type": "node", "id": 10000401959, "lat": 46.9955795, "lon": 8.37513}, {"type": "node", "id": 10000401960, "lat": 46.9956375, "lon": 8.3752805}, {"type": "node", "id": 10000401961, "lat": 46.9956547, "lon": 8.3752661}, {"type": "node", "id": 10000401962, "lat": 46.9955964, "lon": 8.375116}, {"type": "node", "id": 10041250623, "lat": 46.9957299, "lon": 8.3619834}, {"type": "node", "id": 10041250624, "lat": 46.99574, "lon": 8.3619695}, {"type": "node", "id": 11360082148, "lat": 46.9946342, "lon": 8.3743179}, {"type": "node", "id": 11360082149, "lat": 46.9947257, "lon": 8.374574}, {"type": "node", "id": 11360082150, "lat": 46.9948706, "lon": 8.3744627}, {"type": "node", "id": 11360082151, "lat": 46.9947792, "lon": 8.3742066}, {"type": "node", "id": 11833815089, "lat": 46.9902939, "lon": 8.3711887}, {"type": "way", "id": 298986519, "nodes": [3029122676, 3029122677, 3029122664, 3029122665, 3029122676], "tags": {"addr:city": "B\u00fcrgenstock", "addr:housenumber": "2a", "addr:place": "B\u00fcrgenstock", "addr:postcode": "6363", "building": "yes"}}, {"type": "way", "id": 298986523, "nodes": [3029122682, 3029122683, 3029122684, 3029122685, 3029122682], "tags": {"addr:city": "B\u00fcrgenstock", "addr:housenumber": "1", "addr:place": "B\u00fcrgenstock", "addr:postcode": "6363", "building": "yes"}}, {"type": "way", "id": 298988326, "nodes": [3029142218, 3029142219, 3029142220, 10000401959, 10000401962, 10000401961, 10000401960, 3029142221, 3029142222, 3029142223, 3029142224, 3029142225, 3029142226, 3029142227, 3029142228, 3029142229, 3029142230, 3029142231, 3029142232, 3029142333, 3029142218], "tags": {"addr:city": "B\u00fcrgenstock", "addr:housenumber": "3", "addr:place": "B\u00fcrgenstock", "addr:postcode": "6363", "building": "yes"}}, {"type": "way", "id": 376583422, "nodes": [3799897627, 3799897628, 3799897629, 3799897630, 3799897627], "tags": {"building": "yes"}}, {"type": "way", "id": 376583561, "nodes": [3799898481, 3799898482, 3799898483, 3799898484, 10000157252, 10000157251, 10000157250, 10000157249, 3799898481], "tags": {"addr:city": "Obb\u00fcrgen", "addr:housenumber": "1", "addr:place": "Grabacher", "addr:postcode": "6363", "building": "yes"}}, {"type": "way", "id": 376583563, "nodes": [3799898707, 3799898708, 3799898709, 3799898710, 3799898707], "tags": {"building": "yes"}}, {"type": "way", "id": 376731268, "nodes": [3801231419, 3801231420, 3801231421, 3801231422, 3801231423, 3801231424, 3801231419], "tags": {"addr:city": "Kehrsiten", "addr:housenumber": "6", "addr:place": "R\u00fcteli", "addr:postcode": "6365", "addr:street": "R\u00fcteli", "building": "detached", "building:levels": "1", "roof:levels": "1", "roof:shape": "gabled"}}, {"type": "way", "id": 376731271, "nodes": [3801231435, 3801231436, 3801231437, 3801231438, 10041250623, 10041250624, 3801231439, 3801231440, 3801231435], "tags": {"addr:city": "Kehrsiten", "addr:housenumber": "1", "addr:place": "Mattliweid", "addr:postcode": "6365", "addr:street": "Mattliweid", "building": "detached", "building:levels": "1", "roof:levels": "1", "roof:shape": "gabled"}}, {"type": "way", "id": 376731272, "nodes": [3801231441, 3801231442, 3801231443, 3801231444, 3801231441], "tags": {"addr:city": "Kehrsiten", "addr:housenumber": "3", "addr:place": "Mattliweid", "addr:postcode": "6365", "addr:street": "Mattliweid", "building": "detached", "building:levels": "1", "roof:levels": "1", "roof:shape": "gabled"}}, {"type": "way", "id": 376731273, "nodes": [3801231445, 3801231446, 3801231447, 3801231448, 3801231445], "tags": {"addr:city": "Kehrsiten", "addr:housenumber": "5", "addr:place": "Mattliweid", "addr:postcode": "6365", "addr:street": "Mattliweid", "building": "detached", "building:levels": "1", "roof:levels": "1", "roof:shape": "gabled"}}, {"type": "way", "id": 376731324, "nodes": [3801231660, 3801231661, 3801231662, 3801231663, 3801231660], "tags": {"addr:city": "Obb\u00fcrgen", "addr:housenumber": "3", "addr:place": "Grabacher", "addr:postcode": "6363", "building": "yes"}}, {"type": "way", "id": 376731325, "nodes": [3801231664, 3801231665, 3801231666, 3801231667, 3801231664], "tags": {"addr:city": "Obb\u00fcrgen", "addr:housenumber": "1", "addr:place": "Ober Grabacher", "addr:postcode": "6363", "building": "yes"}}, {"type": "way", "id": 376731327, "nodes": [3801231668, 3801231669, 3801231670, 3801231671, 3801231668], "tags": {"building": "yes"}}, {"type": "way", "id": 376731328, "nodes": [3801231672, 3801231673, 3801231674, 3801231675, 3801231676, 11833815089, 3801231677, 3801231672], "tags": {"building": "yes"}}, {"type": "way", "id": 376731330, "nodes": [3801231682, 3801231683, 3801231684, 3801231685, 3801231686, 3801231687, 3801231682], "tags": {"addr:city": "Obb\u00fcrgen", "addr:housenumber": "1", "addr:place": "Kilchb\u00fcel", "addr:postcode": "6363", "building": "yes"}}, {"type": "way", "id": 376731331, "nodes": [3801231688, 3801231689, 3801231690, 3801231691, 3801231688], "tags": {"building": "yes"}}, {"type": "way", "id": 376731332, "nodes": [3801231692, 3801231693, 3801231694, 3801231699, 3801231700, 3801231701, 3801231702, 10000157261, 3801231703, 10000157257, 3801231692], "tags": {"building": "yes"}}, {"type": "way", "id": 376731333, "nodes": [3801231704, 3801231705, 3801231706, 3801231707, 3801231704], "tags": {"building": "yes"}}, {"type": "way", "id": 376731334, "nodes": [3801231708, 3801231709, 3801231710, 3801231711, 3801231708], "tags": {"building": "yes"}}, {"type": "way", "id": 381064558, "nodes": [3843248060, 3843248061, 3843248062, 3843248063, 3843248060], "tags": {"building": "yes"}}, {"type": "way", "id": 1091902716, "nodes": [10000157257, 3801231707, 3801231706, 10000157258, 10000157259, 10000157260, 10000157261, 3801231703, 10000157257], "tags": {"building": "yes"}}, {"type": "way", "id": 1224993529, "nodes": [11360082151, 11360082150, 11360082149, 11360082148, 11360082151], "tags": {"addr:city": "B\u00fcrgenstock", "addr:housenumber": "2b", "addr:place": "B\u00fcrgenstock", "addr:postcode": "6363", "building": "yes"}}, {"type": "way", "id": 1224993621, "nodes": [3029122666, 3029122667, 3029122668, 3029122669, 3029122666], "tags": {"addr:city": "B\u00fcrgenstock", "addr:housenumber": "2c", "addr:place": "B\u00fcrgenstock", "addr:postcode": "6363", "building": "yes"}}]}