{"version": 0.6, "generator": "Overpass API 0.7.62.8 e802775f", "osm3s": {"timestamp_osm_base": "2025-11-07T09:05:00Z", "copyright": "The data included in this document is from www.openstreetmap.org. The data is made available under ODbL."}, "elements": [{"type": "node", "id": 4731042133, "lat": 46.2055904, "lon": 8.974372}, {"type": "node", "id": 4756560887, "lat": 46.2055213, "lon": 8.974375}, {"type": "node", "id": 4756560888, "lat": 46.2055878, "lon": 8.9742457}, {"type": "node", "id": 4756560907, "lat": 46.2057308, "lon": 8.9745774}, {"type": "node", "id": 4756560917, "lat": 46.2056971, "lon": 8.9746331}, {"type": "node", "id": 4756560918, "lat": 46.2056613, "lon": 8.9745879}, {"type": "node", "id": 4756560919, "lat": 46.205695, "lon": 8.9745323}, {"type": "node", "id": 4756560920, "lat": 46.2055186, "lon": 8.9742487}, {"type": "node", "id": 4756568678, "lat": 46.2040718, "lon": 8.9749806}, {"type": "node", "id": 4756568679, "lat": 46.2040258, "lon": 8.9750251}, {"type": "node", "id": 4756568680, "lat": 46.2040794, "lon": 8.9751411}, {"type": "node", "id": 4756568681, "lat": 46.2041254, "lon": 8.9750967}, {"type": "node", "id": 4756568682, "lat": 46.2040649, "lon": 8.9753144}, {"type": "node", "id": 4756568683, "lat": 46.2041064, "lon": 8.9754063}, {"type": "node", "id": 4756568685, "lat": 46.2041377, "lon": 8.9752458}, {"type": "node", "id": 4756568686, "lat": 46.2041612, "lon": 8.9754258}, {"type": "node", "id": 4756568687, "lat": 46.2041017, "lon": 8.9754755}, {"type": "node", "id": 4756568688, "lat": 46.20415, "lon": 8.975596}, {"type": "node", "id": 4756568689, "lat": 46.2042095, "lon": 8.9755462}, {"type": "node", "id": 4756568690, "lat": 46.2044904, "lon": 8.9755511}, {"type": "node", "id": 4756568691, "lat": 46.2044448, "lon": 8.9755894}, {"type": "node", "id": 4756568692, "lat": 46.2044869, "lon": 8.9756938}, {"type": "node", "id": 4756568693, "lat": 46.2045325, "lon": 8.9756554}, {"type": "node", "id": 4756568694, "lat": 46.2047536, "lon": 8.9757926}, {"type": "node", "id": 4756568695, "lat": 46.2047881, "lon": 8.9758485}, {"type": "node", "id": 4756568696, "lat": 46.2047279, "lon": 8.975926}, {"type": "node", "id": 4756568697, "lat": 46.2046934, "lon": 8.9758701}, {"type": "node", "id": 4756568699, "lat": 46.2049229, "lon": 8.9761929}, {"type": "node", "id": 4756568700, "lat": 46.2048551, "lon": 8.9761082}, {"type": "node", "id": 4756568701, "lat": 46.2049061, "lon": 8.9760229}, {"type": "node", "id": 4756569938, "lat": 46.2053958, "lon": 8.9767028}, {"type": "node", "id": 4756569939, "lat": 46.2053483, "lon": 8.9767716}, {"type": "node", "id": 4756569940, "lat": 46.2053878, "lon": 8.9768287}, {"type": "node", "id": 4756569941, "lat": 46.2054354, "lon": 8.9767598}, {"type": "node", "id": 4756569942, "lat": 46.2056561, "lon": 8.9763865}, {"type": "node", "id": 4756569943, "lat": 46.2056388, "lon": 8.9764691}, {"type": "node", "id": 4756569944, "lat": 46.2055625, "lon": 8.9764358}, {"type": "node", "id": 4756569945, "lat": 46.2055798, "lon": 8.9763532}, {"type": "node", "id": 4756569946, "lat": 46.2058088, "lon": 8.9761522}, {"type": "node", "id": 4756569947, "lat": 46.2058055, "lon": 8.9762564}, {"type": "node", "id": 4756569948, "lat": 46.205749, "lon": 8.9762526}, {"type": "node", "id": 4756569949, "lat": 46.2057523, "lon": 8.9761485}, {"type": "node", "id": 4756569950, "lat": 46.2042817, "lon": 8.9769941}, {"type": "node", "id": 4756569951, "lat": 46.2042725, "lon": 8.9770714}, {"type": "node", "id": 4756569952, "lat": 46.2042128, "lon": 8.9770566}, {"type": "node", "id": 4756569953, "lat": 46.204222, "lon": 8.9769793}, {"type": "node", "id": 4756569954, "lat": 46.2040303, "lon": 8.976735}, {"type": "node", "id": 4756569955, "lat": 46.2039602, "lon": 8.9767986}, {"type": "node", "id": 4756569956, "lat": 46.204014, "lon": 8.9769227}, {"type": "node", "id": 4756569957, "lat": 46.2040842, "lon": 8.9768591}, {"type": "node", "id": 4756569958, "lat": 46.2039305, "lon": 8.9767427}, {"type": "node", "id": 4756569959, "lat": 46.2038813, "lon": 8.9768174}, {"type": "node", "id": 4756569960, "lat": 46.2038314, "lon": 8.9767487}, {"type": "node", "id": 4756569961, "lat": 46.2038805, "lon": 8.9766741}, {"type": "node", "id": 4756569962, "lat": 46.2039569, "lon": 8.9764696}, {"type": "node", "id": 4756569963, "lat": 46.2039136, "lon": 8.9765483}, {"type": "node", "id": 4756569964, "lat": 46.2038392, "lon": 8.9764628}, {"type": "node", "id": 4756569965, "lat": 46.2038825, "lon": 8.976384}, {"type": "node", "id": 4756643343, "lat": 46.2037356, "lon": 8.9758665}, {"type": "node", "id": 4756643344, "lat": 46.2037694, "lon": 8.9759627}, {"type": "node", "id": 4756643345, "lat": 46.2038431, "lon": 8.9759087}, {"type": "node", "id": 4756643346, "lat": 46.2038093, "lon": 8.9758125}, {"type": "node", "id": 4756643347, "lat": 46.2034761, "lon": 8.9755783}, {"type": "node", "id": 4756643348, "lat": 46.2034851, "lon": 8.9757026}, {"type": "node", "id": 4756643349, "lat": 46.203407, "lon": 8.9757145}, {"type": "node", "id": 4756643350, "lat": 46.2033979, "lon": 8.9755902}, {"type": "node", "id": 4756643351, "lat": 46.2033094, "lon": 8.9759361}, {"type": "node", "id": 4756643352, "lat": 46.203312, "lon": 8.9760447}, {"type": "node", "id": 4756643353, "lat": 46.2033644, "lon": 8.976042}, {"type": "node", "id": 4756643354, "lat": 46.2033617, "lon": 8.9759334}, {"type": "node", "id": 4756643363, "lat": 46.202936, "lon": 8.9740502}, {"type": "node", "id": 4756643364, "lat": 46.2028651, "lon": 8.9740961}, {"type": "node", "id": 4756643365, "lat": 46.2028983, "lon": 8.9742028}, {"type": "node", "id": 4756643366, "lat": 46.2029691, "lon": 8.9741568}, {"type": "node", "id": 4756643375, "lat": 46.203349, "lon": 8.9737461}, {"type": "node", "id": 4756643376, "lat": 46.2033424, "lon": 8.9738517}, {"type": "node", "id": 4756643377, "lat": 46.203294, "lon": 8.9738454}, {"type": "node", "id": 4756643378, "lat": 46.2033006, "lon": 8.9737397}, {"type": "node", "id": 10711071188, "lat": 46.2044416, "lon": 8.9741713}, {"type": "node", "id": 10711071189, "lat": 46.2043694, "lon": 8.9741954}, {"type": "node", "id": 10711071190, "lat": 46.2043745, "lon": 8.9742272}, {"type": "node", "id": 10711071191, "lat": 46.2043475, "lon": 8.9742362}, {"type": "node", "id": 10711071192, "lat": 46.2043613, "lon": 8.9743221}, {"type": "node", "id": 10711071193, "lat": 46.2043755, "lon": 8.9743174}, {"type": "node", "id": 10711071194, "lat": 46.2043843, "lon": 8.9743726}, {"type": "node", "id": 10711071195, "lat": 46.2044206, "lon": 8.9743605}, {"type": "node", "id": 10711071196, "lat": 46.2044173, "lon": 8.9743401}, {"type": "node", "id": 10711071197, "lat": 46.204449, "lon": 8.9743294}, {"type": "node", "id": 10711071198, "lat": 46.2044322, "lon": 8.9742246}, {"type": "node", "id": 10711071199, "lat": 46.2044492, "lon": 8.974219}, {"type": "node", "id": 10711071200, "lat": 46.203714, "lon": 8.9768794}, {"type": "node", "id": 10711071201, "lat": 46.2036492, "lon": 8.9769098}, {"type": "node", "id": 10711071202, "lat": 46.2036537, "lon": 8.9769299}, {"type": "node", "id": 10711071203, "lat": 46.2036403, "lon": 8.9769362}, {"type": "node", "id": 10711071204, "lat": 46.203667, "lon": 8.9770552}, {"type": "node", "id": 10711153805, "lat": 46.2037369, "lon": 8.9770224}, {"type": "node", "id": 10711153806, "lat": 46.2037184, "lon": 8.97694}, {"type": "node", "id": 10711153807, "lat": 46.2037267, "lon": 8.9769361}, {"type": "node", "id": 10711153808, "lat": 46.2033281, "lon": 8.9733962}, {"type": "node", "id": 10711153809, "lat": 46.2033799, "lon": 8.9734366}, {"type": "node", "id": 10711153810, "lat": 46.2033421, "lon": 8.973541}, {"type": "node", "id": 10711153811, "lat": 46.2032912, "lon": 8.9734983}, {"type": "node", "id": 10711153812, "lat": 46.2031046, "lon": 8.9737777}, {"type": "node", "id": 10711153814, "lat": 46.20302, "lon": 8.9738788}, {"type": "node", "id": 10711153815, "lat": 46.2030385, "lon": 8.9737568}, {"type": "node", "id": 10711153817, "lat": 46.2030866, "lon": 8.9739693}, {"type": "node", "id": 10711153818, "lat": 46.2030138, "lon": 8.9739669}, {"type": "node", "id": 10711153819, "lat": 46.2030119, "lon": 8.9738944}, {"type": "node", "id": 10711153820, "lat": 46.2032451, "lon": 8.9741953}, {"type": "node", "id": 10711153821, "lat": 46.2032123, "lon": 8.9742113}, {"type": "node", "id": 10711153822, "lat": 46.203216, "lon": 8.9742269}, {"type": "node", "id": 10711153823, "lat": 46.2032006, "lon": 8.9742344}, {"type": "node", "id": 10711153824, "lat": 46.2032096, "lon": 8.9742731}, {"type": "node", "id": 10711153825, "lat": 46.2031839, "lon": 8.9742857}, {"type": "node", "id": 10711153826, "lat": 46.203195, "lon": 8.9743334}, {"type": "node", "id": 10711153827, "lat": 46.203269, "lon": 8.9742972}, {"type": "node", "id": 10711153838, "lat": 46.2031146, "lon": 8.9765066}, {"type": "node", "id": 10711153839, "lat": 46.2030937, "lon": 8.9765136}, {"type": "node", "id": 10711153840, "lat": 46.2030977, "lon": 8.9765438}, {"type": "node", "id": 10711153841, "lat": 46.2030463, "lon": 8.9765589}, {"type": "node", "id": 10711153842, "lat": 46.2030399, "lon": 8.9765299}, {"type": "node", "id": 10711153843, "lat": 46.2030238, "lon": 8.9765334}, {"type": "node", "id": 10711153844, "lat": 46.2030037, "lon": 8.9764149}, {"type": "node", "id": 10711153845, "lat": 46.2030945, "lon": 8.9763824}, {"type": "node", "id": 10711153846, "lat": 46.2034906, "lon": 8.9761697}, {"type": "node", "id": 10711153847, "lat": 46.2034313, "lon": 8.9762052}, {"type": "node", "id": 10711153848, "lat": 46.2034616, "lon": 8.9763111}, {"type": "node", "id": 10711153849, "lat": 46.203521, "lon": 8.9762755}, {"type": "node", "id": 12843459546, "lat": 46.2056179, "lon": 8.9763699}, {"type": "node", "id": 12843459547, "lat": 46.2056007, "lon": 8.9764524}, {"type": "node", "id": 12897046901, "lat": 46.2030747, "lon": 8.9738961}, {"type": "node", "id": 12897046902, "lat": 46.2030861, "lon": 8.9738997}, {"type": "node", "id": 12966111551, "lat": 46.2041792, "lon": 8.9753378}, {"type": "node", "id": 12966111600, "lat": 46.204974, "lon": 8.9761077}, {"type": "way", "id": 482876683, "nodes": [4731042133, 4756560888, 4756560920, 4756560887, 4731042133], "tags": {"addr:city": "Monte Carasso", "addr:country": "CH", "addr:housenumber": "1", "addr:place": "Zona Monti 3", "addr:postcode": "6513", "building": "hut", "tourism": "alpine_hut"}}, {"type": "way", "id": 482876687, "nodes": [4756560907, 4756560917, 4756560918, 4756560919, 4756560907], "tags": {"building": "hut"}}, {"type": "way", "id": 482877508, "nodes": [4756568678, 4756568679, 4756568680, 4756568681, 4756568678], "tags": {"addr:city": "Monte Carasso", "addr:country": "CH", "addr:housenumber": "20", "addr:place": "Zona Monti 3", "addr:postcode": "6513", "building": "yes"}}, {"type": "way", "id": 482877509, "nodes": [4756568682, 4756568683, 12966111551, 4756568685, 4756568682], "tags": {"addr:city": "Monte Carasso", "addr:country": "CH", "addr:housenumber": "19", "addr:place": "Zona Monti 3", "addr:postcode": "6513", "building": "house"}}, {"type": "way", "id": 482877510, "nodes": [4756568686, 4756568687, 4756568688, 4756568689, 4756568686], "tags": {"addr:city": "Monte Carasso", "addr:country": "CH", "addr:housenumber": "18", "addr:place": "Zona Monti 3", "addr:postcode": "6513", "building": "yes"}}, {"type": "way", "id": 482877511, "nodes": [4756568690, 4756568691, 4756568692, 4756568693, 4756568690], "tags": {"addr:city": "Monte Carasso", "addr:country": "CH", "addr:housenumber": "21", "addr:place": "Zona Monti 3", "addr:postcode": "6513", "building": "yes"}}, {"type": "way", "id": 482877512, "nodes": [4756568694, 4756568695, 4756568696, 4756568697, 4756568694], "tags": {"addr:city": "Monte Carasso", "addr:country": "CH", "addr:housenumber": "22", "addr:place": "Zona Monti 3", "addr:postcode": "6513", "building": "yes"}}, {"type": "way", "id": 482877513, "nodes": [12966111600, 4756568699, 4756568700, 4756568701, 12966111600], "tags": {"addr:city": "Monte Carasso", "addr:country": "CH", "addr:housenumber": "23", "addr:place": "Zona Monti 3", "addr:postcode": "6513", "building": "yes"}}, {"type": "way", "id": 482877981, "nodes": [4756569938, 4756569939, 4756569940, 4756569941, 4756569938], "tags": {"addr:city": "Monte Carasso", "addr:housenumber": "24", "addr:place": "Zona Monti 3", "addr:postcode": "6513", "building": "yes", "roof:colour": "grey", "roof:orientation": "across", "roof:shape": "gabled", "source": "Swiss Image 2025 and GWR from https://qa.poole.ch/addresses/ch/missing/5002.geojson"}}, {"type": "way", "id": 482877982, "nodes": [12843459546, 4756569942, 4756569943, 12843459547], "tags": {"source": "Swiss Image 2025 and GWR from https://qa.poole.ch/addresses/ch/missing/5002.geojson"}}, {"type": "way", "id": 482877983, "nodes": [4756569946, 4756569947, 4756569948, 4756569949, 4756569946], "tags": {"addr:city": "Monte Carasso", "addr:housenumber": "26", "addr:place": "Zona Monti 3", "addr:postcode": "6513", "building": "yes", "roof:colour": "grey", "roof:orientation": "along", "roof:shape": "gabled", "source": "Swiss Image 2025 and GWR from https://qa.poole.ch/addresses/ch/missing/5002.geojson"}}, {"type": "way", "id": 482877984, "nodes": [4756569950, 4756569951, 4756569952, 4756569953, 4756569950], "tags": {"building": "yes"}}, {"type": "way", "id": 482877985, "nodes": [4756569954, 4756569955, 4756569956, 4756569957, 4756569954], "tags": {"addr:city": "Monte Carasso", "addr:country": "CH", "addr:housenumber": "14", "addr:place": "Zona Monti 3", "addr:postcode": "6513", "building": "yes"}}, {"type": "way", "id": 482877986, "nodes": [4756569958, 4756569959, 4756569960, 4756569961, 4756569958], "tags": {"addr:city": "Monte Carasso", "addr:country": "CH", "addr:housenumber": "15", "addr:place": "Zona Monti 3", "addr:postcode": "6513", "building": "yes"}}, {"type": "way", "id": 482877987, "nodes": [4756569962, 4756569963, 4756569964, 4756569965, 4756569962], "tags": {"addr:city": "Monte Carasso", "addr:country": "CH", "addr:housenumber": "16", "addr:place": "Zona Monti 3", "addr:postcode": "6513", "building": "yes"}}, {"type": "way", "id": 482885746, "nodes": [4756643343, 4756643344, 4756643345, 4756643346, 4756643343], "tags": {"addr:city": "Monte Carasso", "addr:country": "CH", "addr:housenumber": "17", "addr:place": "Zona Monti 3", "addr:postcode": "6513", "building": "yes"}}, {"type": "way", "id": 482885747, "nodes": [4756643347, 4756643348, 4756643349, 4756643350, 4756643347], "tags": {"addr:city": "Monte Carasso", "addr:country": "CH", "addr:housenumber": "10", "addr:place": "Zona Monti 3", "addr:postcode": "6513", "building": "yes"}}, {"type": "way", "id": 482885748, "nodes": [4756643351, 4756643352, 4756643353, 4756643354, 4756643351], "tags": {"addr:city": "Monte Carasso", "addr:country": "CH", "addr:housenumber": "11", "addr:place": "Zona Monti 3", "addr:postcode": "6513", "building": "yes"}}, {"type": "way", "id": 482885751, "nodes": [4756643363, 4756643364, 4756643365, 4756643366, 4756643363], "tags": {"addr:city": "Monte Carasso", "addr:country": "CH", "addr:housenumber": "8", "addr:place": "Zona Monti 3", "addr:postcode": "6513", "building": "yes"}}, {"type": "way", "id": 482885754, "nodes": [4756643375, 4756643376, 4756643377, 4756643378, 4756643375], "tags": {"addr:city": "Monte Carasso", "addr:country": "CH", "addr:housenumber": "4", "addr:place": "Zona Monti 3", "addr:postcode": "6513", "building": "yes"}}, {"type": "way", "id": 1151361890, "nodes": [10711071188, 10711071189, 10711071190, 10711071191, 10711071192, 10711071193, 10711071194, 10711071195, 10711071196, 10711071197, 10711071198, 10711071199, 10711071188], "tags": {"addr:city": "Monte Carasso", "addr:country": "CH", "addr:housenumber": "2", "addr:place": "Zona Monti 3", "addr:postcode": "6513", "building": "yes"}}, {"type": "way", "id": 1151361891, "nodes": [10711071200, 10711071201, 10711071202, 10711071203, 10711071204, 10711153805, 10711153806, 10711153807, 10711071200], "tags": {"addr:city": "Monte Carasso", "addr:country": "CH", "addr:housenumber": "13", "addr:place": "Zona Monti 3", "addr:postcode": "6513", "building": "yes"}}, {"type": "way", "id": 1151361892, "nodes": [10711153808, 10711153809, 10711153810, 10711153811, 10711153808], "tags": {"addr:city": "Monte Carasso", "addr:country": "CH", "addr:housenumber": "3", "addr:place": "Zona Monti 3", "addr:postcode": "6513", "building": "yes"}}, {"type": "way", "id": 1151361893, "nodes": [10711153812, 12897046902, 12897046901, 10711153814, 10711153815, 10711153812], "tags": {"addr:city": "Monte Carasso", "addr:country": "CH", "addr:housenumber": "5", "addr:place": "Zona Monti 3", "addr:postcode": "6513", "building": "yes"}}, {"type": "way", "id": 1151361894, "nodes": [12897046902, 10711153817, 10711153818, 10711153819, 12897046901, 12897046902], "tags": {"addr:city": "Monte Carasso", "addr:country": "CH", "addr:housenumber": "6", "addr:place": "Zona Monti 3", "addr:postcode": "6513", "building": "yes"}}, {"type": "way", "id": 1151361895, "nodes": [10711153820, 10711153821, 10711153822, 10711153823, 10711153824, 10711153825, 10711153826, 10711153827, 10711153820], "tags": {"addr:city": "Monte Carasso", "addr:country": "CH", "addr:housenumber": "7", "addr:place": "Zona Monti 3", "addr:postcode": "6513", "building": "yes"}}, {"type": "way", "id": 1151361898, "nodes": [10711153838, 10711153839, 10711153840, 10711153841, 10711153842, 10711153843, 10711153844, 10711153845, 10711153838], "tags": {"addr:city": "Monte Carasso", "addr:country": "CH", "addr:housenumber": "12", "addr:place": "Zona Monti 3", "addr:postcode": "6513", "building": "yes"}}, {"type": "way", "id": 1151361899, "nodes": [10711153846, 10711153847, 10711153848, 10711153849, 10711153846], "tags": {"building": "yes"}}, {"type": "way", "id": 1387428984, "nodes": [12843459547, 4756569944, 4756569945, 12843459546], "tags": {"source": "Swiss Image 2025 and GWR from https://qa.poole.ch/addresses/ch/missing/5002.geojson"}}, {"type": "relation", "id": 19140552, "members": [{"type": "way", "ref": 1387428984, "role": "outer"}, {"type": "way", "ref": 482877982, "role": "outer"}], "tags": {"addr:city": "Monte Carasso", "addr:housenumber": "25", "addr:place": "Zona Monti 3", "addr:postcode": "6513", "building": "yes", "type": "multipolygon"}}]}